#dP2024  1  5  6  0  0.00000000      96 __u+U IGS20 EXT  IAC
## 2295 453600.00000000   900.00000000 60314 0.2500000000000
+  118   C06C07C08C09C10C11C12C13C14C16C19C20C21C22C23C24C25
+        C26C27C28C29C30C32C33C34C35C36C37C38C39C40C41C42C43
+        C44C45C46E02E03E04E05E07E08E09E10E11E12E13E14E15E18
+        E19E21E24E25E26E27E30E31E33E34E36G01G02G03G04G05G06
+        G07G08G09G10G11G12G13G14G15G16G17G18G19G20G21G22G23
+        G24G25G26G28G29G30G31G32J02J03J04R01R02R03R04R05R07
+        R08R09R11R12R13R14R15R16R17R18R19R20R21R22R24R25  0
++        10 13 10 10  8  8  9 10 13 10  8 10  7  8  8  8  8
++         9  9  7  9  7  9  8  7  9  9  8  8 10 10  8  8  8
++         6  8 10  7  7  7  7  7  8  8  8  8  7  8  8  8  7
++         8  7  8  8  7  7  7  8  7  8  8  7  8  7  7  7  7
++         9  8  7  8  7  8  8  7  7  7  8  7  8  7  8  7  8
++         8  8  8  8  8  8  8  8  8  0  8  7  9  9  7  8  7
++         7  8  8  7  8  9  8  8  8  8  9 10  8  7  8  8  0
%c M  cc GPS ccc cccc cccc cccc cccc ccccc ccccc ccccc ccccc
%c cc cc ccc ccc cccc cccc cccc cccc ccccc ccccc ccccc ccccc
%f  0.0000000  0.000000000  0.00000000000  0.000000000000000
%f  0.0000000  0.000000000  0.00000000000  0.000000000000000
%i    0    0    0    0      0      0      0      0         0
%i    0    0    0    0      0      0      0      0         0
/* IAC                                ULTRA-RAPID PREDICTION
/* S/V CLOCKS ARE ALIGNED TO GNSS TIME                      
/* G:C1WC2W R:C1PC2P E:C1XC5X C:C2IC6I J:C1CC2S             
/* PCV:IGS20_2290 OL/AL:FES2004  NONE     YN ORB:CoN CLK:CoN
*  2024 01 06  5 30  0.00000000
PC06 -17368.394353  26252.937484  27946.076619     31.942590
PC07  -7975.289335  41215.553010   4987.652626   -592.334490
PC08   1793.113458  25824.156466 -33202.654488    131.984003
PC09  -5580.219647  25800.433839  33177.420793   -315.141390
PC10  -3437.440239  42317.034764    -88.770938    136.991986
PC11 -22739.231326  16090.419952  -1682.981728    343.798331
PC12 -22994.228892   2856.199978  15596.927373    804.460812
PC13   7545.946003  29030.605083 -29348.584562    404.346069
PC14 -11687.552124  16446.759757 -19287.434155    -93.445240
PC16 -17728.389188  25977.019227  28181.589657   -265.906255
PC19   6569.472594 -23919.860335  12790.869223   -941.627346
PC20  14502.620542  -8103.259413  22428.417111    -38.988325
PC21 -14339.451288 -14105.919613 -19321.074756   -964.940440
PC22  -5599.868674 -26899.329611  -4824.917463   -158.428936
PC23   9598.130426  18919.607710  18118.943858   -793.708327
PC24 -24335.323494   -435.319846  13655.209399    762.916254
PC25  -9392.263951  13581.164947  22482.797285    295.225098
PC26 -24715.940250 -12764.307357  -2484.936392   -230.699646
PC27  18404.817527   4703.625093 -20462.082008    252.721586
PC28   3168.793592  16637.971298 -22169.913397    191.580082
PC29  15975.752994 -20629.205172   9902.169921    224.389626
PC30  24326.239296 -10893.622560  -8310.744303    -13.306302
PC32  14449.597488  14109.038382  19276.296616   -550.421633
PC33  -6465.546506  23927.365928 -12830.932852   -942.382309
PC34 -24224.828939  11980.407727   6899.412500    340.996747
PC35  -3786.742060 -16602.496503  22105.705140    463.813101
PC36  10375.743499 -12986.664313 -22401.571231    -63.671503
PC37  24166.241977  13596.390234   3003.538498   -931.473409
PC38  -7072.215747  22836.316585 -34648.769387    128.697137
PC39 -23823.921874  26176.859266  22779.498453     -6.498260
PC40 -14412.135193  38897.188047   8278.354563    -50.887642
PC41   5277.612905  27104.220723   4108.739487   -877.650427
PC42 -14885.195073   6393.026338 -22682.301331   -469.654285
PC43 -16643.112422  20464.998241  -9077.872673     55.274096
PC44 -18490.944282  -4272.065357  20437.942927    345.222499
PC45 -10021.281871 -18881.105087 -17964.963861    -60.920426
PC46  23803.986450   -306.206851 -14539.121698   -113.377530
PE02 -20976.009129 -10327.864537  18157.557779     92.717393
PE03 -18746.052081   1118.184579 -22888.165608    -85.108286
PE04  19008.622245 -20179.509322  10383.798600   -297.083196
PE05  -7580.670428 -18377.337926 -21932.539128   4707.606504
PE07  -8413.921239  27297.663216   7769.110117    -96.916555
PE08 -19123.887492  19748.507237 -10986.007733   -203.601938
PE09   8525.313758 -27280.633440  -7683.924458   -289.379685
PE10  16281.819477 -13765.267459  20532.694298   -591.979778
PE11   4646.695917 -15984.554143  24475.323333   3280.553811
PE12  24254.286052  -9756.581722  13904.835015   -850.484678
PE13  -5440.696015  15852.756519 -24386.137267    -19.832580
PE14   1638.660517 -20708.302852  10953.505333      2.509187
PE15 -24593.276109   9461.140451 -13465.023052    -78.651208
PE18  -1170.758519  28007.945954 -16336.679884    178.687065
PE19  17784.059950   1426.940044  23623.449177   -868.606408
PE21  16706.110794  24337.679296  -2118.901471   -572.483706
PE24  -1977.593631 -24727.115992 -16192.458625   -526.487421
PE25 -16505.242969 -24518.577089   1733.092952     -0.919002
PE26  17214.295157  12760.242766 -20408.888595    331.089022
PE27   2451.464595  24849.466803  15879.171352   -242.356213
PE30 -13336.624096  10408.777125  24273.317147   -801.613057
PE31  13064.408929 -10726.075968 -24298.914292    -13.179065
PE33  28911.798800   2725.373046  -5711.796855      5.475649
PE34 -29057.050844  -2321.492253   5169.530364    -87.425408
PE36 -16559.469043 -12883.475178  20885.453620   -167.912787
PG01  12159.959757  13006.945747 -20175.669377    165.387681
PG02   4745.247568  14279.003045 -21405.484406   -505.016527
PG03  10975.789704  23760.346111  -4993.833227    106.773885
PG04   2840.489380  19642.687933  17594.374242    258.802401
PG05  -2754.351121 -21701.891567  14824.487030   -156.898478
PG06  24117.521708  -6656.547657   9135.195869    454.341716
PG07  23948.948876   6610.120788  10511.274083    -30.339611
PG08  -2942.011283  23810.570113 -11002.359261   -160.679139
PG09  12466.888510   9008.367548  21564.777954     49.849809
PG10 -17022.827741  -1695.942609 -20208.528320    -68.206104
PG11  15828.711672 -12030.689923  17611.947334   -529.332277
PG12  -9257.307918 -24493.643093  -4963.919047   -465.014529
PG13  12964.780853 -22724.457279  -4036.635884    613.069220
PG14  18518.231414   5358.261423 -18324.353453    291.034897
PG15   -140.445330 -24271.768704 -11019.593304    114.367589
PG16  -5002.938523  18074.434685  18293.686148   -389.827155
PG17  17957.415998  -5250.424151 -18479.416966    720.525656
PG18 -24571.147366  -5452.055912   8784.080876   -525.139933
PG19  19240.161738 -12811.760480 -12946.210580    422.650627
PG20   8038.303906 -13755.951916  21330.151910    392.950428
PG21    430.930957  14984.687123 -21382.463303    139.304585
PG22  15262.768365  -2465.373793 -21128.087743     53.119736
PG23 -19249.266264 -13435.288217 -12588.537609    129.886001
PG24  -3988.085194 -15574.964867 -21566.953234   -408.377961
PG25 -17218.950511 -19663.100982   5147.139006    484.254393
PG26 -11942.961826  10325.130759  21202.886197    202.905478
PG28 -25142.552449   6051.549865   6018.003295    -90.455654
PG29 -10639.962353 -10844.122006  21730.558933   -609.052812
PG30  26693.269336   -875.213281     95.354359   -448.838292
PG31 -20492.828983  10068.070381  13695.148068   -227.113964
PG32 -18010.413273   9261.772510 -16880.333957   -602.840635
PJ02 -26564.631269  22807.628365  28618.888467     -0.983434
PJ03      0.000000      0.000000      0.000000     -0.135909
PJ04 -18647.584175  31981.250109 -15207.556796     76.059378
PR01  -9838.086089  -8714.360811 -21859.511416     73.896614
PR02 -10742.886276  10404.110546 -20598.559745    -22.359962
PR03  -5718.224649  23691.424298  -7371.869021     92.263440
PR04   2011.456027  23566.180241   9556.643323    218.330124
PR05   8795.304611  10820.313917  21363.076649    124.945692
PR07   5441.323971 -24059.710179   6649.049569     73.005228
PR08  -2266.970138 -23521.994637  -9596.375704    -73.904157
PR09  17420.240516    474.201886 -18647.097462    162.844588
PR11 -12020.982712 -16876.657954 -14862.579328   -225.756138
PR12 -21650.870735 -12982.510819   3739.854991     35.291877
PR13 -18536.145451  -2590.452758  17313.497383    -42.994484
PR14  -2987.433470  11325.621653  22665.706590     25.897432
PR15  12987.835195  17176.397683  13686.855786     83.348751
PR16  21672.966009  13042.620615  -3415.148050     22.240757
PR17 -14830.452947  14249.353492 -15099.821785     49.884173
PR18   1191.496028  10823.251066 -23041.235761    120.670610
PR19  15354.659885   3459.194882 -20065.686860   -261.006543
PR20  23977.242317  -8407.301369  -2483.411431   -106.371046
PR21  14530.761796 -14086.906712  15517.741149    -66.717397
PR22  -2067.898376 -10884.873357  23007.738643    101.806329
PR24 -23579.300770   9558.975128   1938.356234    -38.780003
PR25  15217.478067 -13804.681888  15114.606720     18.383143
EOF
